NORAD_CAT_ID,OBJECT_NAME,OBJECT_TYPE,EPOCH,MEAN_MOTION,ECCENTRICITY,INCLINATION,RA_OF_ASC_NODE,ARG_OF_PERICENTER,MEAN_ANOMALY,BSTAR,MEAN_MOTION_DOT,MEAN_MOTION_DDOT,TLE_LINE0,TLE_LINE1,TLE_LINE2,SEMIMAJOR_AXIS,PERIOD,APOGEE,PERIGEE,DECAYED
53914.0,STARLINK-5040,PAYLOAD,2023-06-23 17:14:49,15.08838547,0.0001258,53.2157,78.218,82.1643,277.9492,0.00017059,2.428e-05,0.0,0 STARLINK-5040,1 53914U 22119AE  23174.71862891  .00002428  00000-0  17059-3 0  9997,2 53914  53.2157  78.2180 0001258  82.1643 277.9492 15.08838547 41951,6917.885,95.438,540.62,538.88,0.0
53914.0,STARLINK-5040,PAYLOAD,2023-06-25 02:37:55,15.08848831,0.0001047,53.2159,71.9707,96.7356,263.3756,0.00013047,1.79e-05,0.0,0 STARLINK-5040,1 53914U 22119AE  23176.10966610  .00001790  00000-0  13047-3 0  9990,2 53914  53.2159  71.9707 0001047  96.7356 263.3756 15.08848831 42169,6917.853,95.437,540.443,538.994,0.0
53914.0,STARLINK-5040,PAYLOAD,2023-06-25 16:56:24,15.08836316,0.0001182,53.2165,69.2979,72.8012,287.3109,6.7446e-05,7.86e-06,0.0,0 STARLINK-5040,1 53914U 22119AE  23176.70583365  .00000786  00000-0  67446-4 0  9995,2 53914  53.2165  69.2979 0001182  72.8012 287.3109 15.08836316 42254,6917.892,95.438,540.574,538.939,0.0
53914.0,STARLINK-5040,PAYLOAD,2023-06-26 02:28:42,15.08844679,0.0001114,53.2162,67.5114,83.9642,276.1477,0.0001475,2.061e-05,0.0,0 STARLINK-5040,1 53914U 22119AE  23177.10327003  .00002061  00000-0  14750-3 0  9992,2 53914  53.2162  67.5114 0001114  83.9642 276.1477 15.08844679 42312,6917.866,95.437,540.502,538.96,0.0
53914.0,STARLINK-5040,PAYLOAD,2023-06-26 21:33:20,15.08840861,0.0001126,53.2167,63.9418,81.1793,278.9327,4.2019e-05,3.81e-06,0.0,0 STARLINK-5040,1 53914U 22119AE  23177.89815394  .00000381  00000-0  42019-4 0  9996,2 53914  53.2167  63.9418 0001126  81.1793 278.9327 15.08840861 42430,6917.878,95.438,540.522,538.964,0.0
53914.0,STARLINK-5040,PAYLOAD,2023-06-29 02:01:04,15.08839798,0.0001123,53.2172,54.1304,85.9715,274.1405,7.1742e-05,8.54e-06,0.0,0 STARLINK-5040,1 53914U 22119AE  23180.08407712  .00000854  00000-0  71742-4 0  9992,2 53914  53.2172  54.1304 0001123  85.9715 274.1405 15.08839798 42763,6917.881,95.438,540.523,538.969,0.0
53914.0,STARLINK-5040,PAYLOAD,2023-06-30 14:34:56,15.08838784,0.0001153,53.2177,47.2914,92.8474,267.265,5.0439e-05,5.15e-06,0.0,0 STARLINK-5040,1 53914U 22119AE  23181.60760150  .00000515  00000-0  50439-4 0  9993,2 53914  53.2177  47.2914 0001153  92.8474 267.2650 15.08838784 42994,6917.884,95.438,540.547,538.951,0.0
53914.0,STARLINK-5040,PAYLOAD,2023-07-01 01:42:38,15.08845575,0.0001175,53.2175,45.2098,91.8283,268.2844,9.7246e-05,1.26e-05,0.0,0 STARLINK-5040,1 53914U 22119AE  23182.07127540  .00001260  00000-0  97246-4 0  9990,2 53914  53.2175  45.2098 0001175  91.8283 268.2844 15.08845575 43065,6917.863,95.437,540.541,538.915,0.0
53914.0,STARLINK-5040,PAYLOAD,2023-07-01 08:04:11,15.08833649,0.0001421,53.2178,44.0205,85.5217,274.5938,-5.3243e-06,-3.73e-06,0.0,0 STARLINK-5040,1 53914U 22119AE  23182.33624713 -.00000373  00000-0 -53243-5 0  9999,2 53914  53.2178  44.0205 0001421  85.5217 274.5938 15.08833649 43104,6917.9,95.438,540.748,538.782,0.0
53914.0,STARLINK-5040,PAYLOAD,2023-07-01 23:58:02,15.08839796,0.0001165,53.2174,41.0463,84.1314,275.9811,4.8892e-05,4.9e-06,0.0,0 STARLINK-5040,1 53914U 22119AE  23182.99864298  .00000490  00000-0  48892-4 0  9996,2 53914  53.2174  41.0463 0001165  84.1314 275.9811 15.08839796 43206,6917.881,95.438,540.552,538.94,0.0
53914.0,STARLINK-5040,PAYLOAD,2023-07-02 23:48:49,15.08849839,0.0001242,53.2173,36.5859,85.2085,274.9049,0.00012598,1.718e-05,0.0,0 STARLINK-5040,1 53914U 22119AE  23183.99223474  .00001718  00000-0  12598-3 0  9999,2 53914  53.2173  36.5859 0001242  85.2085 274.9049 15.08849839 43353,6917.85,95.437,540.575,538.856,0.0
53914.0,STARLINK-5040,PAYLOAD,2023-07-03 17:18:04,15.08835374,0.0001252,53.2171,33.3152,83.6695,276.444,6.733e-05,7.84e-06,0.0,0 STARLINK-5040,1 53914U 22119AE  23184.72088502  .00000784  00000-0  67330-4 0  9999,2 53914  53.2171  33.3152 0001252  83.6695 276.4440 15.08835374 43465,6917.895,95.438,540.626,538.893,0.0
53914.0,STARLINK-5040,PAYLOAD,2023-07-03 23:39:36,15.08844593,0.0001205,53.2179,32.1246,91.7082,268.4048,8.7965e-05,1.113e-05,0.0,0 STARLINK-5040,1 53914U 22119AE  23184.98583797  .00001113  00000-0  87965-4 0  9996,2 53914  53.2179  32.1246 0001205  91.7082 268.4048 15.08844593 43505,6917.866,95.437,540.565,538.898,0.0
53914.0,STARLINK-5040,PAYLOAD,2023-07-04 17:08:51,15.08842024,0.0001229,53.2176,28.8546,93.3669,266.7464,1.5252e-05,-4.5e-07,0.0,0 STARLINK-5040,1 53914U 22119AE  23185.71448192 -.00000045  00000-0  15252-4 0  9991,2 53914  53.2176  28.8546 0001229  93.3669 266.7464 15.08842024 43614,6917.874,95.437,540.589,538.889,0.0
53914.0,STARLINK-5040,PAYLOAD,2023-07-04 23:30:23,15.08849919,0.0001383,53.2175,27.6666,87.2676,272.8474,-2.2004e-05,-6.38e-06,0.0,0 STARLINK-5040,1 53914U 22119AE  23185.97943726 -.00000638  00000-0 -22004-4 0  9994,2 53914  53.2175  27.6666 0001383  87.2676 272.8474 15.08849919 43657,6917.85,95.437,540.672,538.758,0.0
53914.0,STARLINK-5040,PAYLOAD,2023-07-05 15:24:15,15.08834532,0.0001266,53.2179,24.6923,88.7255,271.3882,3.9773e-05,3.45e-06,0.0,0 STARLINK-5040,1 53914U 22119AE  23186.64184662  .00000345  00000-0  39773-4 0  9999,2 53914  53.2179  24.6923 0001266  88.7255 271.3882 15.08834532 43756,6917.897,95.438,540.638,538.886,0.0
53914.0,STARLINK-5040,PAYLOAD,2023-07-06 20:01:11,15.08841132,0.0001286,53.2167,19.3398,85.9,274.2139,0.00010633,1.405e-05,0.0,0 STARLINK-5040,1 53914U 22119AE  23187.83416432  .00001405  00000-0  10633-3 0  9995,2 53914  53.2167  19.3398 0001286  85.9000 274.2139 15.08841132 43930,6917.877,95.437,540.632,538.852,0.0
53914.0,STARLINK-5040,PAYLOAD,2023-07-07 16:41:12,15.08839337,0.0001216,53.2181,15.4746,93.3927,266.7204,7.3462e-05,8.81e-06,0.0,0 STARLINK-5040,1 53914U 22119AE  23188.69528771  .00000881  00000-0  73462-4 0  9997,2 53914  53.2181  15.4746 0001216  93.3927 266.7204 15.08839337 44062,6917.882,95.438,540.589,538.906,0.0
53914.0,STARLINK-5040,PAYLOAD,2023-07-08 18:07:22,15.08842718,0.0001318,53.2188,10.7162,100.8648,259.2492,7.7842e-05,9.51e-06,0.0,0 STARLINK-5040,1 53914U 22119AE  23189.75512650  .00000951  00000-0  77842-4 0  9998,2 53914  53.2188  10.7162 0001318 100.8648 259.2492 15.08842718 44227,6917.872,95.437,540.649,538.825,0.0
53914.0,STARLINK-5040,PAYLOAD,2023-07-09 11:36:37,15.08836872,0.0001277,53.2183,7.4454,85.0594,275.0544,3.7026e-05,3.01e-06,0.0,0 STARLINK-5040,1 53914U 22119AE  23190.48377180  .00000301  00000-0  37026-4 0  9996,2 53914  53.2183   7.4454 0001277  85.0594 275.0544 15.08836872 44337,6917.89,95.438,540.638,538.872,0.0
53914.0,STARLINK-5040,PAYLOAD,2023-07-09 17:58:09,15.08879322,0.000106,53.2184,6.2558,83.8289,276.2824,-0.00055797,-9.166e-05,0.0,0 STARLINK-5040,1 53914U 22119AE  23190.74871940 -.00009166  00000-0 -55797-3 0  9992,2 53914  53.2184   6.2558 0001060  83.8289 276.2824 15.08879322 44372,6917.76,95.435,540.358,538.892,0.0
53914.0,STARLINK-5040,PAYLOAD,2023-07-09 21:08:56,15.08840432,0.0001217,53.2179,5.6605,85.5375,274.5757,6.9705e-05,8.22e-06,0.0,0 STARLINK-5040,1 53914U 22119AE  23190.88120837  .00000822  00000-0  69705-4 0  9992,2 53914  53.2179   5.6605 0001217  85.5375 274.5757 15.08840432 44399,6917.879,95.438,540.586,538.902,0.0
53914.0,STARLINK-5040,PAYLOAD,2023-07-10 22:35:05,15.08851035,0.0001179,53.2177,0.9022,88.8273,271.2855,0.00012435,1.692e-05,0.0,0 STARLINK-5040,1 53914U 22119AE  23191.94103825  .00001692  00000-0  12435-3 0  9991,2 53914  53.2177   0.9022 0001179  88.8273 271.2855 15.08851035 44550,6917.847,95.437,540.527,538.896,0.0
53914.0,STARLINK-5040,PAYLOAD,2023-07-11 11:18:11,15.08836162,0.0001214,53.2168,358.5235,91.1786,268.9345,7.2116e-05,8.6e-06,0.0,0 STARLINK-5040,1 53914U 22119AE  23192.47096954  .00000860  00000-0  72116-4 0  9993,2 53914  53.2168 358.5235 0001214  91.1786 268.9345 15.08836162 44634,6917.892,95.438,540.597,538.917,0.0
53914.0,STARLINK-5040,PAYLOAD,2023-07-12 17:30:30,15.08846105,0.0001113,53.218,352.8742,93.2088,266.9032,4.1964e-05,3.8e-06,0.0,0 STARLINK-5040,1 53914U 22119AE  23193.72952487  .00000380  00000-0  41964-4 0  9998,2 53914  53.2180 352.8742 0001113  93.2088 266.9032 15.08846105 44824,6917.862,95.437,540.497,538.957,0.0
53914.0,STARLINK-5040,PAYLOAD,2023-07-13 17:21:18,15.08837059,0.0001049,53.2185,348.4143,102.6493,257.4616,4.5892e-05,4.43e-06,0.0,0 STARLINK-5040,1 53914U 22119AE  23194.72313127  .00000443  00000-0  45892-4 0  9995,2 53914  53.2185 348.4143 0001049 102.6493 257.4616 15.08837059 44975,6917.889,95.438,540.48,539.029,0.0
53914.0,STARLINK-5040,PAYLOAD,2023-07-14 17:12:05,15.08852843,9.03e-05,53.219,343.9548,107.7641,252.345,-0.00010217,-1.914e-05,0.0,0 STARLINK-5040,1 53914U 22119AE  23195.71672670 -.00001914  00000-0 -10217-3 0  9994,2 53914  53.2190 343.9548 0000903 107.7641 252.3450 15.08852843 45125,6917.841,95.437,540.331,539.081,0.0
53914.0,STARLINK-5040,PAYLOAD,2023-07-15 10:41:20,15.08836075,0.0001,53.2191,340.6843,111.9073,248.2025,4.2908e-05,3.95e-06,0.0,0 STARLINK-5040,1 53914U 22119AE  23196.44537590  .00000395  00000-0  42908-4 0  9999,2 53914  53.2191 340.6843 0001000 111.9073 248.2025 15.08836075 45236,6917.892,95.438,540.449,539.066,0.0
53914.0,STARLINK-5040,PAYLOAD,2023-07-16 18:29:03,15.08840995,0.0001105,53.2193,334.7353,94.3904,265.7214,5.3988e-05,5.72e-06,0.0,0 STARLINK-5040,1 53914U 22119AE  23197.77017640  .00000572  00000-0  53988-4 0  9992,2 53914  53.2193 334.7353 0001105  94.3904 265.7214 15.08840995 45433,6917.877,95.437,540.507,538.978,0.0
53914.0,STARLINK-5040,PAYLOAD,2023-07-18 08:38:18,15.08839548,7.83e-05,53.217,327.5981,87.1073,273.0009,0.00012155,1.647e-05,0.0,0 STARLINK-5040,1 53914U 22119AE  23199.35993460  .00001647  00000-0  12155-3 0  9995,2 53914  53.2170 327.5981 0000783  87.1073 273.0009 15.08839548 45675,6917.882,95.438,540.288,539.205,0.0
